[{"OBJECT_NAME":"ELEVATION-1","OBJECT_ID":"2025-009BW","EPOCH":"2026-03-09T17:34:53.371488","MEAN_MOTION":15.36649756,"ECCENTRICITY":0.00031551,"INCLINATION":97.3895,"RA_OF_ASC_NODE":153.1078,"ARG_OF_PERICENTER":317.9798,"MEAN_ANOMALY":42.1204,"EPHEMERIS_TYPE":0,"CLASSIFICATION_TYPE":"U","NORAD_CAT_ID":62677,"ELEMENT_SET_NO":999,"REV_AT_EPOCH":12152,"BSTAR":0.00076188329,"MEAN_MOTION_DOT":0.00027253,"MEAN_MOTION_DDOT":0},{"OBJECT_NAME":"OBJECT K","OBJECT_ID":"2025-155K","EPOCH":"2026-03-09T22:07:25.197888","MEAN_MOTION":15.34284916,"ECCENTRICITY":0.00088839,"INCLINATION":97.4419,"RA_OF_ASC_NODE":38.2399,"ARG_OF_PERICENTER":139.4299,"MEAN_ANOMALY":220.7607,"EPHEMERIS_TYPE":0,"CLASSIFICATION_TYPE":"U","NORAD_CAT_ID":64885,"ELEMENT_SET_NO":999,"REV_AT_EPOCH":6566,"BSTAR":0.00076172732,"MEAN_MOTION_DOT":0.00025288,"MEAN_MOTION_DDOT":0}]
